FENGYUN 1C DEB          
1 31022U 99025BDQ 17338.57753836  .00000142  00000-0  15007-3 0  9992
2 31022  99.4842  98.3907 0111622   4.2744 355.9340 13.88174257213344
